NORAD_CAT_ID,OBJECT_NAME,OBJECT_TYPE,EPOCH,MEAN_MOTION,ECCENTRICITY,INCLINATION,RA_OF_ASC_NODE,ARG_OF_PERICENTER,MEAN_ANOMALY,BSTAR,MEAN_MOTION_DOT,MEAN_MOTION_DDOT,TLE_LINE0,TLE_LINE1,TLE_LINE2,SEMIMAJOR_AXIS,PERIOD,APOGEE,PERIGEE,DECAYED
54784.0,STARLINK-5442,PAYLOAD,2023-06-02 16:12:36,15.08842563,8.22e-05,53.2167,262.4996,81.5072,278.6013,6.4227e-05,7.35e-06,0.0,0 STARLINK-5442,1 54784U 22175AC  23153.67542229  .00000735  00000-0  64227-4 0  9996,2 54784  53.2167 262.4996 0000822  81.5072 278.6013 15.08842563 27296,6917.873,95.437,540.306,539.169,0.0
54784.0,STARLINK-5442,PAYLOAD,2023-06-03 12:52:37,15.08832556,8.03e-05,53.2168,258.6337,84.7205,275.3879,0.00015983,2.256e-05,0.0,0 STARLINK-5442,1 54784U 22175AC  23154.53654823  .00002256  00000-0  15983-3 0  9990,2 54784  53.2168 258.6337 0000803  84.7205 275.3879 15.08832556 27425,6917.903,95.438,540.324,539.213,0.0
54784.0,STARLINK-5442,PAYLOAD,2023-06-03 14:27:59,15.08893257,5.66e-05,53.2168,258.3363,91.3415,268.7642,-0.00066902,-0.00010935,0.0,0 STARLINK-5442,1 54784U 22175AC  23154.60276991 -.00010935  00000-0 -66902-3 0  9996,2 54784  53.2168 258.3363 0000566  91.3415 268.7642 15.08893257 25274,6917.718,95.434,539.974,539.191,0.0
54784.0,STARLINK-5442,PAYLOAD,2023-06-04 01:35:42,15.08838215,8e-05,53.2172,256.2549,90.5215,269.5869,9.8863e-05,1.286e-05,0.0,0 STARLINK-5442,1 54784U 22175AC  23155.06646638  .00001286  00000-0  98863-4 0  9995,2 54784  53.2172 256.2549 0000800  90.5215 269.5869 15.08838215 25343,6917.886,95.438,540.304,539.197,0.0
54784.0,STARLINK-5442,PAYLOAD,2023-06-04 14:18:47,15.08842062,6.77e-05,53.2166,253.876,88.3483,271.7587,8.7379e-05,1.103e-05,0.0,0 STARLINK-5442,1 54784U 22175AC  23155.59638457  .00001103  00000-0  87379-4 0  9991,2 54784  53.2166 253.8760 0000677  88.3483 271.7587 15.08842062 27583,6917.874,95.437,540.207,539.271,0.0
54784.0,STARLINK-5442,PAYLOAD,2023-06-04 15:54:10,15.08838984,7.9e-05,53.2168,253.5781,90.9376,269.1706,0.00019314,2.787e-05,0.0,0 STARLINK-5442,1 54784U 22175AC  23155.66262401  .00002787  00000-0  19314-3 0  9993,2 54784  53.2168 253.5781 0000790  90.9376 269.1706 15.08838984 27594,6917.883,95.438,540.295,539.202,0.0
54784.0,STARLINK-5442,PAYLOAD,2023-06-05 09:23:25,15.08837458,7.94e-05,53.2164,250.3072,78.4283,281.6798,5.101e-05,5.24e-06,0.0,0 STARLINK-5442,1 54784U 22175AC  23156.39126862  .00000524  00000-0  51010-4 0  9991,2 54784  53.2164 250.3072 0000794  78.4283 281.6798 15.08837458 25548,6917.888,95.438,540.302,539.204,0.0
54784.0,STARLINK-5442,PAYLOAD,2023-06-05 12:34:11,15.08844332,7.38e-05,53.2165,249.7119,86.4949,273.6128,3.3197e-05,2.41e-06,0.0,0 STARLINK-5442,1 54784U 22175AC  23156.52374485  .00000241  00000-0  33197-4 0  9994,2 54784  53.2165 249.7119 0000738  86.4949 273.6128 15.08844332 27728,6917.867,95.437,540.243,539.222,0.0
54784.0,STARLINK-5442,PAYLOAD,2023-06-06 09:14:12,15.08837335,7.67e-05,53.2165,245.8463,85.8734,274.2345,4.2495e-05,3.89e-06,0.0,0 STARLINK-5442,1 54784U 22175AC  23157.38486857  .00000389  00000-0  42495-4 0  9990,2 54784  53.2165 245.8463 0000767  85.8734 274.2345 15.08837335 25691,6917.889,95.438,540.284,539.223,0.0
54784.0,STARLINK-5442,PAYLOAD,2023-06-06 10:49:35,15.08838015,7.79e-05,53.2165,245.5488,87.1515,272.9566,5.4535e-05,5.8e-06,0.0,0 STARLINK-5442,1 54784U 22175AC  23157.45110798  .00000580  00000-0  54535-4 0  9997,2 54784  53.2165 245.5488 0000779  87.1515 272.9566 15.08838015 27867,6917.886,95.438,540.29,539.213,0.0
54784.0,STARLINK-5442,PAYLOAD,2023-06-06 12:24:58,15.0884054,7.73e-05,53.2166,245.2511,96.647,263.461,6.6355e-05,7.69e-06,0.0,0 STARLINK-5442,1 54784U 22175AC  23157.51734578  .00000769  00000-0  66355-4 0  9994,2 54784  53.2166 245.2511 0000773  96.6470 263.4610 15.08840540 27873,6917.879,95.438,540.278,539.209,0.0
54784.0,STARLINK-5442,PAYLOAD,2023-06-07 09:04:59,15.08833739,8.11e-05,53.2165,241.3861,82.9962,277.1122,0.0001203,1.627e-05,0.0,0 STARLINK-5442,1 54784U 22175AC  23158.37846937  .00001627  00000-0  12030-3 0  9996,2 54784  53.2165 241.3861 0000811  82.9962 277.1122 15.08833739 28002,6917.9,95.438,540.326,539.203,0.0
54784.0,STARLINK-5442,PAYLOAD,2023-06-08 08:55:46,15.0883914,8.66e-05,53.2164,236.9253,90.4254,269.6838,5.336e-05,5.62e-06,0.0,0 STARLINK-5442,1 54784U 22175AC  23159.37206852  .00000562  00000-0  53360-4 0  9992,2 54784  53.2164 236.9253 0000866  90.4254 269.6838 15.08839140 25991,6917.883,95.438,540.347,539.149,0.0
54784.0,STARLINK-5442,PAYLOAD,2023-06-08 12:06:32,15.08841445,8.38e-05,53.2165,236.3308,87.1133,272.9955,5.0147e-05,5.11e-06,0.0,0 STARLINK-5442,1 54784U 22175AC  23159.50454720  .00000511  00000-0  50147-4 0  9990,2 54784  53.2165 236.3308 0000838  87.1133 272.9955 15.08841445 28176,6917.876,95.437,540.321,539.161,0.0
54784.0,STARLINK-5442,PAYLOAD,2023-06-09 10:21:57,15.08836981,8.58e-05,53.2164,232.1683,85.6477,274.4613,5.0669e-05,5.19e-06,0.0,0 STARLINK-5442,1 54784U 22175AC  23160.43191081  .00000519  00000-0  50669-4 0  9999,2 54784  53.2164 232.1683 0000858  85.6477 274.4613 15.08836981 28314,6917.89,95.438,540.348,539.161,0.0
54784.0,STARLINK-5442,PAYLOAD,2023-06-09 21:29:39,15.08838073,8.53e-05,53.2162,230.0853,72.3856,287.7229,1.9246e-05,1.9e-07,0.0,0 STARLINK-5442,1 54784U 22175AC  23160.89559248  .00000019  00000-0  19246-4 0  9993,2 54784  53.2162 230.0853 0000853  72.3856 287.7229 15.08838073 28388,6917.886,95.438,540.341,539.161,0.0
54784.0,STARLINK-5442,PAYLOAD,2023-06-10 05:26:35,15.08833575,9.24e-05,53.2171,228.6007,94.4352,265.6745,-1.3398e-05,-5.01e-06,0.0,0 STARLINK-5442,1 54784U 22175AC  23161.22679708 -.00000501  00000-0 -13398-4 0  9995,2 54784  53.2171 228.6007 0000924  94.4352 265.6745 15.08833575 26273,6917.9,95.438,540.404,539.126,0.0
54784.0,STARLINK-5442,PAYLOAD,2023-06-10 13:23:30,15.08837074,9.03e-05,53.2167,227.1138,89.0562,271.0533,1.4749e-05,-5.3e-07,0.0,0 STARLINK-5442,1 54784U 22175AC  23161.55799489 -.00000053  00000-0  14749-4 0  9992,2 54784  53.2167 227.1138 0000903  89.0562 271.0533 15.08837074 28486,6917.889,95.438,540.379,539.13,0.0
54784.0,STARLINK-5442,PAYLOAD,2023-06-10 21:20:26,15.08837183,9e-05,53.2167,225.6269,87.3975,272.712,3.3485e-05,2.45e-06,0.0,0 STARLINK-5442,1 54784U 22175AC  23161.88919494  .00000245  00000-0  33485-4 0  9998,2 54784  53.2167 225.6269 0000900  87.3975 272.7120 15.08837183 28537,6917.889,95.438,540.377,539.131,0.0
54784.0,STARLINK-5442,PAYLOAD,2023-06-11 05:17:22,15.08837875,9.11e-05,53.2166,224.1399,87.5678,272.5418,5.9192e-05,6.54e-06,0.0,0 STARLINK-5442,1 54784U 22175AC  23162.22039430  .00000654  00000-0  59192-4 0  9997,2 54784  53.2166 224.1399 0000911  87.5678 272.5418 15.08837875 26420,6917.887,95.438,540.382,539.122,0.0
54784.0,STARLINK-5442,PAYLOAD,2023-06-11 13:14:17,15.08842726,9.41e-05,53.2164,222.6529,86.1341,273.9758,9.4933e-05,1.224e-05,0.0,0 STARLINK-5442,1 54784U 22175AC  23162.55159030  .00001224  00000-0  94933-4 0  9998,2 54784  53.2164 222.6529 0000941  86.1341 273.9758 15.08842726 28639,6917.872,95.437,540.388,539.086,0.0
54784.0,STARLINK-5442,PAYLOAD,2023-06-11 21:11:13,15.08840303,9.28e-05,53.2165,221.1661,83.9076,276.2022,7.4683e-05,9.01e-06,0.0,0 STARLINK-5442,1 54784U 22175AC  23162.88279230  .00000901  00000-0  74683-4 0  9990,2 54784  53.2165 221.1661 0000928  83.9076 276.2022 15.08840303 28680,6917.879,95.438,540.386,539.102,0.0
54784.0,STARLINK-5442,PAYLOAD,2023-06-12 09:54:18,15.08839063,8.83e-05,53.2162,218.7871,83.5731,276.5362,0.00010416,1.37e-05,0.0,0 STARLINK-5442,1 54784U 22175AC  23163.41271237  .00001370  00000-0  10416-3 0  9993,2 54784  53.2162 218.7871 0000883  83.5731 276.5362 15.08839063 28766,6917.883,95.438,540.359,539.137,0.0
54784.0,STARLINK-5442,PAYLOAD,2023-06-12 21:02:00,15.08841674,8.82e-05,53.2161,216.7056,82.2201,277.8891,6.1908e-05,6.98e-06,0.0,0 STARLINK-5442,1 54784U 22175AC  23163.87639169  .00000698  00000-0  61908-4 0  9990,2 54784  53.2161 216.7056 0000882  82.2201 277.8891 15.08841674 28835,6917.875,95.437,540.35,539.13,0.0
54784.0,STARLINK-5442,PAYLOAD,2023-06-13 03:23:33,15.08836118,9.83e-05,53.2164,215.5167,82.7783,277.3321,-6.0171e-06,-3.83e-06,0.0,0 STARLINK-5442,1 54784U 22175AC  23164.14135752 -.00000383  00000-0 -60171-5 0  9995,2 54784  53.2164 215.5167 0000983  82.7783 277.3321 15.08836118 26715,6917.892,95.438,540.437,539.077,0.0
54784.0,STARLINK-5442,PAYLOAD,2023-06-13 12:55:51,15.08839533,9.83e-05,53.2163,213.7327,81.6563,278.454,-1.0235e-05,-4.51e-06,0.0,0 STARLINK-5442,1 54784U 22175AC  23164.53879567 -.00000451  00000-0 -10235-4 0  9998,2 54784  53.2163 213.7327 0000983  81.6563 278.4540 15.08839533 28931,6917.882,95.438,540.427,539.067,0.0
54784.0,STARLINK-5442,PAYLOAD,2023-06-13 20:52:47,15.08841827,9.77e-05,53.2159,212.2472,76.3762,283.7339,-3.3192e-05,-8.16e-06,0.0,0 STARLINK-5442,1 54784U 22175AC  23164.86999467 -.00000816  00000-0 -33192-4 0  9998,2 54784  53.2159 212.2472 0000977  76.3762 283.7339 15.08841827 28985,6917.875,95.437,540.416,539.064,0.0
54784.0,STARLINK-5442,PAYLOAD,2023-06-14 12:46:38,15.08841362,9.9e-05,53.2157,209.2713,87.8376,272.2729,3.7543e-05,3.1e-06,0.0,0 STARLINK-5442,1 54784U 22175AC  23165.53239216  .00000310  00000-0  37543-4 0  9993,2 54784  53.2157 209.2713 0000990  87.8376 272.2729 15.08841362 26922,6917.876,95.437,540.426,539.056,0.0
54784.0,STARLINK-5442,PAYLOAD,2023-06-15 09:26:41,15.08823832,8.91e-05,53.2157,205.4037,97.4959,262.6135,-7.3405e-05,-1.455e-05,0.0,0 STARLINK-5442,1 54784U 22175AC  23166.39353049 -.00001455  00000-0 -73405-4 0  9999,2 54784  53.2157 205.4037 0000891  97.4959 262.6135 15.08823832 27054,6917.93,95.439,540.411,539.178,0.0
54784.0,STARLINK-5442,PAYLOAD,2023-06-15 12:37:27,15.08823314,8.5e-05,53.216,204.8107,88.0794,272.0295,-7.0365e-05,-1.407e-05,0.0,0 STARLINK-5442,1 54784U 22175AC  23166.52601243 -.00001407  00000-0 -70365-4 0  9995,2 54784  53.2160 204.8107 0000850  88.0794 272.0295 15.08823314 29236,6917.931,95.439,540.384,539.208,0.0
